STARLINK-36791          
1 68111U 26044L   26075.25003472 -.01736044  87684-3 -41959-2 0  9999
2 68111  97.2810  35.6371 0001496 105.4013  44.3636 15.96492755  2400
STARLINK-36893          
1 68112U 26044M   26075.25003472 -.01736515  87856-3 -41667-2 0  9990
2 68112  97.2807  35.6378 0001517 103.5439  48.6907 15.96627088  2451
STARLINK-36937          
1 68113U 26044N   26075.25003472 -.01728528  87353-3 -40883-2 0  9997
2 68113  97.2807  35.6402 0001448 106.5205  50.8609 15.96891368  2400
STARLINK-36229          
1 68114U 26044P   26075.25003472 -.01728112  87188-3 -41170-2 0  9993
2 68114  97.2801  35.6384 0001480 106.1784  48.7494 15.96757919  2454
STARLINK-36392          
1 68115U 26044Q   26075.25003472 -.01737714  88358-3 -40789-2 0  9997
2 68115  97.2804  35.6411 0001510 107.1886  53.1749 15.97031964  2456
STARLINK-36805          
1 68116U 26044R   26075.25003472 -.01762271  90854-3 -41038-2 0  9996
2 68116  97.2801  35.6424 0001556 108.3011  55.3783 15.97180615  2451
STARLINK-36844          
1 68117U 26044S   26075.25003472 -.01765269  91280-3 -40807-2 0  9994
2 68117  97.2797  35.6432 0001428 102.8218  63.3722 15.97316207  2406
STARLINK-36789          
1 68118U 26044T   26075.25003472 -.01863311  10118-2 -42766-2 0  9998
2 68118  97.2799  35.6456 0001528 101.9963  69.3752 15.97458599  2403
STARLINK-36850          
1 68119U 26044U   26075.25003472 -.01872295  10226-2 -42653-2 0  9995
2 68119  97.2798  35.6467 0001589 103.4848  70.4887 15.97595351  2401
STARLINK-36868          
1 68120U 26044V   26075.25003472 -.01920926  10751-2 -43409-2 0  9995
2 68120  97.2793  35.6482 0001516  99.6476  77.5677 15.97748117  2403
STARLINK-36855          
1 68121U 26044W   26075.25003472 -.01953870  11121-2 -43808-2 0  9995
2 68121  97.2794  35.6496 0001597 109.8995  70.2836 15.97894587  2409
STARLINK-36366          
1 68122U 26044X   26075.25003472 -.01965024  11259-2 -43726-2 0  9991
2 68122  97.2790  35.6506 0001527 104.4410  78.1997 15.98033063  2459
