CCSDS_OMM_VERS = 2.0
CREATION_DATE  = 
ORIGINATOR     = 

OBJECT_NAME    = STARLINK-36791
OBJECT_ID      = 2026-044L
CENTER_NAME    = EARTH
REF_FRAME      = TEME
TIME_SYSTEM    = UTC
MEAN_ELEMENT_THEORY = SGP/SGP4

EPOCH          = 2026-03-16T06:00:02.999808
MEAN_MOTION    = 15.96492755
ECCENTRICITY   = .00014963
INCLINATION    = 97.2810
RA_OF_ASC_NODE = 35.6371
ARG_OF_PERICENTER = 105.4013
MEAN_ANOMALY   = 44.3636

EPHEMERIS_TYPE = 0
CLASSIFICATION_TYPE = U
NORAD_CAT_ID   = 68111
ELEMENT_SET_NO = 999
REV_AT_EPOCH   = 240
BSTAR          = -.41959276E-2
MEAN_MOTION_DOT = -.1736044E-1
MEAN_MOTION_DDOT = .87683914E-3

CCSDS_OMM_VERS = 2.0
CREATION_DATE  = 
ORIGINATOR     = 

OBJECT_NAME    = STARLINK-36893
OBJECT_ID      = 2026-044M
CENTER_NAME    = EARTH
REF_FRAME      = TEME
TIME_SYSTEM    = UTC
MEAN_ELEMENT_THEORY = SGP/SGP4

EPOCH          = 2026-03-16T06:00:02.999808
MEAN_MOTION    = 15.96627088
ECCENTRICITY   = .00015171
INCLINATION    = 97.2807
RA_OF_ASC_NODE = 35.6378
ARG_OF_PERICENTER = 103.5439
MEAN_ANOMALY   = 48.6907

EPHEMERIS_TYPE = 0
CLASSIFICATION_TYPE = U
NORAD_CAT_ID   = 68112
ELEMENT_SET_NO = 999
REV_AT_EPOCH   = 245
BSTAR          = -.41666587E-2
MEAN_MOTION_DOT = -.1736515E-1
MEAN_MOTION_DDOT = .8785617E-3

CCSDS_OMM_VERS = 2.0
CREATION_DATE  = 
ORIGINATOR     = 

OBJECT_NAME    = STARLINK-36937
OBJECT_ID      = 2026-044N
CENTER_NAME    = EARTH
REF_FRAME      = TEME
TIME_SYSTEM    = UTC
MEAN_ELEMENT_THEORY = SGP/SGP4

EPOCH          = 2026-03-16T06:00:02.999808
MEAN_MOTION    = 15.96891368
ECCENTRICITY   = .00014486
INCLINATION    = 97.2807
RA_OF_ASC_NODE = 35.6402
ARG_OF_PERICENTER = 106.5205
MEAN_ANOMALY   = 50.8609

EPHEMERIS_TYPE = 0
CLASSIFICATION_TYPE = U
NORAD_CAT_ID   = 68113
ELEMENT_SET_NO = 999
REV_AT_EPOCH   = 240
BSTAR          = -.40882621E-2
MEAN_MOTION_DOT = -.1728528E-1
MEAN_MOTION_DDOT = .87353403E-3

CCSDS_OMM_VERS = 2.0
CREATION_DATE  = 
ORIGINATOR     = 

OBJECT_NAME    = STARLINK-36229
OBJECT_ID      = 2026-044P
CENTER_NAME    = EARTH
REF_FRAME      = TEME
TIME_SYSTEM    = UTC
MEAN_ELEMENT_THEORY = SGP/SGP4

EPOCH          = 2026-03-16T06:00:02.999808
MEAN_MOTION    = 15.96757919
ECCENTRICITY   = .00014809
INCLINATION    = 97.2801
RA_OF_ASC_NODE = 35.6384
ARG_OF_PERICENTER = 106.1784
MEAN_ANOMALY   = 48.7494

EPHEMERIS_TYPE = 0
CLASSIFICATION_TYPE = U
NORAD_CAT_ID   = 68114
ELEMENT_SET_NO = 999
REV_AT_EPOCH   = 245
BSTAR          = -.41169737E-2
MEAN_MOTION_DOT = -.1728112E-1
MEAN_MOTION_DDOT = .87187506E-3

CCSDS_OMM_VERS = 2.0
CREATION_DATE  = 
ORIGINATOR     = 

OBJECT_NAME    = STARLINK-36392
OBJECT_ID      = 2026-044Q
CENTER_NAME    = EARTH
REF_FRAME      = TEME
TIME_SYSTEM    = UTC
MEAN_ELEMENT_THEORY = SGP/SGP4

EPOCH          = 2026-03-16T06:00:02.999808
MEAN_MOTION    = 15.97031964
ECCENTRICITY   = .00015104
INCLINATION    = 97.2804
RA_OF_ASC_NODE = 35.6411
ARG_OF_PERICENTER = 107.1886
MEAN_ANOMALY   = 53.1749

EPHEMERIS_TYPE = 0
CLASSIFICATION_TYPE = U
NORAD_CAT_ID   = 68115
ELEMENT_SET_NO = 999
REV_AT_EPOCH   = 245
BSTAR          = -.40788973E-2
MEAN_MOTION_DOT = -.1737714E-1
MEAN_MOTION_DDOT = .8835782E-3

CCSDS_OMM_VERS = 2.0
CREATION_DATE  = 
ORIGINATOR     = 

OBJECT_NAME    = STARLINK-36805
OBJECT_ID      = 2026-044R
CENTER_NAME    = EARTH
REF_FRAME      = TEME
TIME_SYSTEM    = UTC
MEAN_ELEMENT_THEORY = SGP/SGP4

EPOCH          = 2026-03-16T06:00:02.999808
MEAN_MOTION    = 15.97180615
ECCENTRICITY   = .00015565
INCLINATION    = 97.2801
RA_OF_ASC_NODE = 35.6424
ARG_OF_PERICENTER = 108.3011
MEAN_ANOMALY   = 55.3783

EPHEMERIS_TYPE = 0
CLASSIFICATION_TYPE = U
NORAD_CAT_ID   = 68116
ELEMENT_SET_NO = 999
REV_AT_EPOCH   = 245
BSTAR          = -.41038311E-2
MEAN_MOTION_DOT = -.1762271E-1
MEAN_MOTION_DDOT = .90854429E-3

CCSDS_OMM_VERS = 2.0
CREATION_DATE  = 
ORIGINATOR     = 

OBJECT_NAME    = STARLINK-36844
OBJECT_ID      = 2026-044S
CENTER_NAME    = EARTH
REF_FRAME      = TEME
TIME_SYSTEM    = UTC
MEAN_ELEMENT_THEORY = SGP/SGP4

EPOCH          = 2026-03-16T06:00:02.999808
MEAN_MOTION    = 15.97316207
ECCENTRICITY   = .00014285
INCLINATION    = 97.2797
RA_OF_ASC_NODE = 35.6432
ARG_OF_PERICENTER = 102.8218
MEAN_ANOMALY   = 63.3722

EPHEMERIS_TYPE = 0
CLASSIFICATION_TYPE = U
NORAD_CAT_ID   = 68117
ELEMENT_SET_NO = 999
REV_AT_EPOCH   = 240
BSTAR          = -.40806655E-2
MEAN_MOTION_DOT = -.1765269E-1
MEAN_MOTION_DDOT = .9127982E-3

CCSDS_OMM_VERS = 2.0
CREATION_DATE  = 
ORIGINATOR     = 

OBJECT_NAME    = STARLINK-36789
OBJECT_ID      = 2026-044T
CENTER_NAME    = EARTH
REF_FRAME      = TEME
TIME_SYSTEM    = UTC
MEAN_ELEMENT_THEORY = SGP/SGP4

EPOCH          = 2026-03-16T06:00:02.999808
MEAN_MOTION    = 15.97458599
ECCENTRICITY   = .00015283
INCLINATION    = 97.2799
RA_OF_ASC_NODE = 35.6456
ARG_OF_PERICENTER = 101.9963
MEAN_ANOMALY   = 69.3752

EPHEMERIS_TYPE = 0
CLASSIFICATION_TYPE = U
NORAD_CAT_ID   = 68118
ELEMENT_SET_NO = 999
REV_AT_EPOCH   = 240
BSTAR          = -.42765776E-2
MEAN_MOTION_DOT = -.1863311E-1
MEAN_MOTION_DDOT = .10118169E-2

CCSDS_OMM_VERS = 2.0
CREATION_DATE  = 
ORIGINATOR     = 

OBJECT_NAME    = STARLINK-36850
OBJECT_ID      = 2026-044U
CENTER_NAME    = EARTH
REF_FRAME      = TEME
TIME_SYSTEM    = UTC
MEAN_ELEMENT_THEORY = SGP/SGP4

EPOCH          = 2026-03-16T06:00:02.999808
MEAN_MOTION    = 15.97595351
ECCENTRICITY   = .00015895
INCLINATION    = 97.2798
RA_OF_ASC_NODE = 35.6467
ARG_OF_PERICENTER = 103.4848
MEAN_ANOMALY   = 70.4887

EPHEMERIS_TYPE = 0
CLASSIFICATION_TYPE = U
NORAD_CAT_ID   = 68119
ELEMENT_SET_NO = 999
REV_AT_EPOCH   = 240
BSTAR          = -.42653278E-2
MEAN_MOTION_DOT = -.1872295E-1
MEAN_MOTION_DDOT = .10225775E-2

CCSDS_OMM_VERS = 2.0
CREATION_DATE  = 
ORIGINATOR     = 

OBJECT_NAME    = STARLINK-36868
OBJECT_ID      = 2026-044V
CENTER_NAME    = EARTH
REF_FRAME      = TEME
TIME_SYSTEM    = UTC
MEAN_ELEMENT_THEORY = SGP/SGP4

EPOCH          = 2026-03-16T06:00:02.999808
MEAN_MOTION    = 15.97748117
ECCENTRICITY   = .00015161
INCLINATION    = 97.2793
RA_OF_ASC_NODE = 35.6482
ARG_OF_PERICENTER = 99.6476
MEAN_ANOMALY   = 77.5677

EPHEMERIS_TYPE = 0
CLASSIFICATION_TYPE = U
NORAD_CAT_ID   = 68120
ELEMENT_SET_NO = 999
REV_AT_EPOCH   = 240
BSTAR          = -.43409299E-2
MEAN_MOTION_DOT = -.1920926E-1
MEAN_MOTION_DDOT = .10750825E-2

CCSDS_OMM_VERS = 2.0
CREATION_DATE  = 
ORIGINATOR     = 

OBJECT_NAME    = STARLINK-36855
OBJECT_ID      = 2026-044W
CENTER_NAME    = EARTH
REF_FRAME      = TEME
TIME_SYSTEM    = UTC
MEAN_ELEMENT_THEORY = SGP/SGP4

EPOCH          = 2026-03-16T06:00:02.999808
MEAN_MOTION    = 15.97894587
ECCENTRICITY   = .00015972
INCLINATION    = 97.2794
RA_OF_ASC_NODE = 35.6496
ARG_OF_PERICENTER = 109.8995
MEAN_ANOMALY   = 70.2836

EPHEMERIS_TYPE = 0
CLASSIFICATION_TYPE = U
NORAD_CAT_ID   = 68121
ELEMENT_SET_NO = 999
REV_AT_EPOCH   = 240
BSTAR          = -.43807513E-2
MEAN_MOTION_DOT = -.195387E-1
MEAN_MOTION_DDOT = .11120538E-2

CCSDS_OMM_VERS = 2.0
CREATION_DATE  = 
ORIGINATOR     = 

OBJECT_NAME    = STARLINK-36366
OBJECT_ID      = 2026-044X
CENTER_NAME    = EARTH
REF_FRAME      = TEME
TIME_SYSTEM    = UTC
MEAN_ELEMENT_THEORY = SGP/SGP4

EPOCH          = 2026-03-16T06:00:02.999808
MEAN_MOTION    = 15.98033063
ECCENTRICITY   = .00015274
INCLINATION    = 97.2790
RA_OF_ASC_NODE = 35.6506
ARG_OF_PERICENTER = 104.4410
MEAN_ANOMALY   = 78.1997

EPHEMERIS_TYPE = 0
CLASSIFICATION_TYPE = U
NORAD_CAT_ID   = 68122
ELEMENT_SET_NO = 999
REV_AT_EPOCH   = 245
BSTAR          = -.43726186E-2
MEAN_MOTION_DOT = -.1965024E-1
MEAN_MOTION_DDOT = .11258861E-2

